CTC1_L_00182016-03
1 13565U 23524PM  26037.47803241  .00000000  00000+0  00000-0 0  9992
2 13565  55.0000 180.0000 0000000   0.0000   0.0000 13.69880581    11
CTC1_L_00182016-04
1 13566U 22266NC  26037.47803241  .00000000  00000+0  00000-0 0  9995
2 13566  55.0000 180.0000 0000000   0.0000  90.0000 13.69880581    11
CTC1_L_00182017-01
1 13567U 25178RQ  26037.47803241  .00000000  00000+0  00000-0 0  9991
2 13567  55.0000 192.0000 0000000   0.0000 192.0000 13.69880581    18
CTC1_L_00182017-02
1 13568U 24907SF  26037.47803241  .00000000  00000+0  00000-0 0  9991
2 13568  55.0000 192.0000 0000000   0.0000 282.0000 13.69880581    19
CTC1_L_00182017-03
1 13569U 25750LQ  26037.47803241  .00000000  00000+0  00000-0 0  9999
2 13569  55.0000 192.0000 0000000   0.0000  12.0000 13.69880581    11
CTC1_L_00182017-04
1 13570U 24536HX  26037.47803241  .00000000  00000+0  00000-0 0  9992
2 13570  55.0000 192.0000 0000000   0.0000 102.0000 13.69880581    13
CTC1_L_00182018-01
1 13571U 22035JR  26037.47803241  .00000000  00000+0  00000-0 0  9995
2 13571  55.0000 204.0000 0000000   0.0000 204.0000 13.69880581    11
CTC1_L_00182018-02
1 13572U 23274KG  26037.47803241  .00000000  00000+0  00000-0 0  9992
2 13572  55.0000 204.0000 0000000   0.0000 294.0000 13.69880581    11
CTC1_L_00182018-03
1 13573U 25676WK  26037.47803241  .00000000  00000+0  00000-0 0  9991
2 13573  55.0000 204.0000 0000000   0.0000  24.0000 13.69880581    13
CTC1_L_00182018-04
1 13574U 23523BK  26037.47803241  .00000000  00000+0  00000-0 0  9991
2 13574  55.0000 204.0000 0000000   0.0000 114.0000 13.69880581    14
CTC1_L_00182019-01
1 13575U 24344MS  26037.47803241  .00000000  00000+0  00000-0 0  9994
2 13575  55.0000 216.0000 0000000   0.0000 216.0000 13.69880581    11
CTC1_L_00182019-02
1 13576U 22844DJ  26037.47803241  .00000000  00000+0  00000-0 0  9998
2 13576  55.0000 216.0000 0000000   0.0000 306.0000 13.69880581    12
CTC1_L_00182019-03
1 13577U 25475UN  26037.47803241  .00000000  00000+0  00000-0 0  9992
2 13577  55.0000 216.0000 0000000   0.0000  36.0000 13.69880581    13
CTC1_L_00182019-04
1 13578U 26880ST  26037.47803241  .00000000  00000+0  00000-0 0  9994
2 13578  55.0000 216.0000 0000000   0.0000 126.0000 13.69880581    14
CTC1_L_00182020-01
1 13579U 22360RU  26037.47803241  .00000000  00000+0  00000-0 0  9994
2 13579  55.0000 228.0000 0000000   0.0000 228.0000 13.69880581    11
CTC1_L_00182020-02
1 13580U 23670RA  26037.47803241  .00000000  00000+0  00000-0 0  9991
2 13580  55.0000 228.0000 0000000   0.0000 318.0000 13.69880581    13
CTC1_L_00182020-03
1 13581U 26775NL  26037.47803241  .00000000  00000+0  00000-0 0  9991
2 13581  55.0000 228.0000 0000000   0.0000  48.0000 13.69880581    14
CTC1_L_00182020-04
1 13582U 23759CA  26037.47803241  .00000000  00000+0  00000-0 0  9991
2 13582  55.0000 228.0000 0000000   0.0000 138.0000 13.69880581    15
CTC1_L_00182021-01
1 13583U 22260JI  26037.47803241  .00000000  00000+0  00000-0 0  9998
2 13583  55.0000 240.0000 0000000   0.0000 240.0000 13.69880581    14
CTC1_L_00182021-02
1 13584U 22589ED  26037.47803241  .00000000  00000+0  00000-0 0  9993
2 13584  55.0000 240.0000 0000000   0.0000 330.0000 13.69880581    15
CTC1_L_00182021-03
1 13585U 23018JZ  26037.47803241  .00000000  00000+0  00000-0 0  9992
2 13585  55.0000 240.0000 0000000   0.0000  60.0000 13.69880581    16
CTC1_L_00182021-04
1 13586U 22556YT  26037.47803241  .00000000  00000+0  00000-0 0  9999
2 13586  55.0000 240.0000 0000000   0.0000 150.0000 13.69880581    17
CTC1_L_00182022-01
1 13587U 24499XI  26037.47803241  .00000000  00000+0  00000-0 0  9998
2 13587  55.0000 252.0000 0000000   0.0000 252.0000 13.69880581    14
CTC1_L_00182022-02
1 13588U 25765HF  26037.47803241  .00000000  00000+0  00000-0 0  9996
2 13588  55.0000 252.0000 0000000   0.0000 342.0000 13.69880581    15
CTC1_L_00182022-03
1 13589U 26715XI  26037.47803241  .00000000  00000+0  00000-0 0  9993
2 13589  55.0000 252.0000 0000000   0.0000  72.0000 13.69880581    16
CTC1_L_00182022-04
1 13590U 26074CN  26037.47803241  .00000000  00000+0  00000-0 0  9993
2 13590  55.0000 252.0000 0000000   0.0000 162.0000 13.69880581    18
CTC1_L_00182023-01
1 13591U 22027LL  26037.47803241  .00000000  00000+0  00000-0 0  9998
2 13591  55.0000 264.0000 0000000   0.0000 264.0000 13.69880581    15
CTC1_L_00182023-02
1 13592U 25615S   26037.47803241  .00000000  00000+0  00000-0 0  9995
2 13592  55.0000 264.0000 0000000   0.0000 354.0000 13.69880581    16
CTC1_L_00182023-03
1 13593U 22729ZY  26037.47803241  .00000000  00000+0  00000-0 0  9999
2 13593  55.0000 264.0000 0000000   0.0000  84.0000 13.69880581    17
CTC1_L_00182023-04
1 13594U 24046Z   26037.47803241  .00000000  00000+0  00000-0 0  9994
2 13594  55.0000 264.0000 0000000   0.0000 174.0000 13.69880581    18
CTC1_L_00182024-01
1 13595U 24894HJ  26037.47803241  .00000000  00000+0  00000-0 0  9996
2 13595  55.0000 276.0000 0000000   0.0000 276.0000 13.69880581    15
CTC1_L_00182024-02
1 13596U 25469GG  26037.47803241  .00000000  00000+0  00000-0 0  9996
2 13596  55.0000 276.0000 0000000   0.0000   6.0000 13.69880581    17
CTC1_L_00182024-03
1 13597U 24057FH  26037.47803241  .00000000  00000+0  00000-0 0  9999
2 13597  55.0000 276.0000 0000000   0.0000  96.0000 13.69880581    17
CTC1_L_00182024-04
1 13598U 22400UH  26037.47803241  .00000000  00000+0  00000-0 0  9990
2 13598  55.0000 276.0000 0000000   0.0000 186.0000 13.69880581    18
CTC1_L_00182025-01
1 13599U 22677XL  26037.47803241  .00000000  00000+0  00000-0 0  9997
2 13599  55.0000 288.0000 0000000   0.0000 288.0000 13.69880581    15
CTC1_L_00182025-02
1 13600U 26075NQ  26037.47803241  .00000000  00000+0  00000-0 0  9996
2 13600  55.0000 288.0000 0000000   0.0000  18.0000 13.69880581    19
CTC1_L_00182025-03
1 13601U 26129YI  26037.47803241  .00000000  00000+0  00000-0 0  9997
2 13601  55.0000 288.0000 0000000   0.0000 108.0000 13.69880581    10
CTC1_L_00182025-04
1 13602U 23271SM  26037.47803241  .00000000  00000+0  00000-0 0  9993
2 13602  55.0000 288.0000 0000000   0.0000 198.0000 13.69880581    10
CTC1_L_00182026-01
1 13603U 23286DD  26037.47803241  .00000000  00000+0  00000-0 0  9990
2 13603  55.0000 300.0000 0000000   0.0000 300.0000 13.69880581    11
CTC1_L_00182026-02
1 13604U 25972AM  26037.47803241  .00000000  00000+0  00000-0 0  9995
2 13604  55.0000 300.0000 0000000   0.0000  30.0000 13.69880581    12
CTC1_L_00182026-03
1 13605U 24684BN  26037.47803241  .00000000  00000+0  00000-0 0  9995
2 13605  55.0000 300.0000 0000000   0.0000 120.0000 13.69880581    13
CTC1_L_00182026-04
1 13606U 26309SP  26037.47803241  .00000000  00000+0  00000-0 0  9992
2 13606  55.0000 300.0000 0000000   0.0000 210.0000 13.69880581    14
CTC1_L_00182027-01
1 13607U 23456DT  26037.47803241  .00000000  00000+0  00000-0 0  9993
2 13607  55.0000 312.0000 0000000   0.0000 312.0000 13.69880581    11
CTC1_L_00182027-02
1 13608U 26984GH  26037.47803241  .00000000  00000+0  00000-0 0  9993
2 13608  55.0000 312.0000 0000000   0.0000  42.0000 13.69880581    12
CTC1_L_00182027-03
1 13609U 26637YO  26037.47803241  .00000000  00000+0  00000-0 0  9999
2 13609  55.0000 312.0000 0000000   0.0000 132.0000 13.69880581    13
CTC1_L_00182027-04
1 13610U 26711RM  26037.47803241  .00000000  00000+0  00000-0 0  9994
2 13610  55.0000 312.0000 0000000   0.0000 222.0000 13.69880581    15
CTC1_L_00182028-01
1 13611U 26995ZU  26037.47803241  .00000000  00000+0  00000-0 0  9999
2 13611  55.0000 324.0000 0000000   0.0000 324.0000 13.69880581    12
CTC1_L_00182028-02
1 13612U 24109HF  26037.47803241  .00000000  00000+0  00000-0 0  9995
2 13612  55.0000 324.0000 0000000   0.0000  54.0000 13.69880581    13
CTC1_L_00182028-03
1 13613U 24481TQ  26037.47803241  .00000000  00000+0  00000-0 0  9999
2 13613  55.0000 324.0000 0000000   0.0000 144.0000 13.69880581    14
CTC1_L_00182028-04
1 13614U 24403GR  26037.47803241  .00000000  00000+0  00000-0 0  9994
2 13614  55.0000 324.0000 0000000   0.0000 234.0000 13.69880581    15
CTC1_L_00182029-01
1 13615U 23719XI  26037.47803241  .00000000  00000+0  00000-0 0  9994
2 13615  55.0000 336.0000 0000000   0.0000 336.0000 13.69880581    12
CTC1_L_00182029-02
1 13616U 22663CB  26037.47803241  .00000000  00000+0  00000-0 0  9992
2 13616  55.0000 336.0000 0000000   0.0000  66.0000 13.69880581    13
CTC1_L_00182029-03
1 13617U 26095LF  26037.47803241  .00000000  00000+0  00000-0 0  9996
2 13617  55.0000 336.0000 0000000   0.0000 156.0000 13.69880581    14
CTC1_L_00182029-04
1 13618U 25989GK  26037.47803241  .00000000  00000+0  00000-0 0  9998
2 13618  55.0000 336.0000 0000000   0.0000 246.0000 13.69880581    15
CTC1_L_00182030-01
1 13619U 25319JU  26037.47803241  .00000000  00000+0  00000-0 0  9996
2 13619  55.0000 348.0000 0000000   0.0000 348.0000 13.69880581    12
CTC1_L_00182030-02
1 13620U 22771FY  26037.47803241  .00000000  00000+0  00000-0 0  9997
2 13620  55.0000 348.0000 0000000   0.0000  78.0000 13.69880581    14
CTC1_L_00182030-03
1 13621U 26805WA  26037.47803241  .00000000  00000+0  00000-0 0  9990
2 13621  55.0000 348.0000 0000000   0.0000 168.0000 13.69880581    15
CTC1_L_00182030-04
1 13622U 23204DS  26037.47803241  .00000000  00000+0  00000-0 0  9991
2 13622  55.0000 348.0000 0000000   0.0000 258.0000 13.69880581    16
